[{"OBJECT_NAME":"STARLINK-34746","OBJECT_ID":"2025-152F","EPOCH":"2026-03-09T14:13:47.414496","MEAN_MOTION":15.0564453,"ECCENTRICITY":0.0001778,"INCLINATION":97.6018,"RA_OF_ASC_NODE":285.425,"ARG_OF_PERICENTER":84.6912,"MEAN_ANOMALY":275.4518,"EPHEMERIS_TYPE":0,"CLASSIFICATION_TYPE":"U","NORAD_CAT_ID":64847,"ELEMENT_SET_NO":999,"REV_AT_EPOCH":3540,"BSTAR":0.00039503,"MEAN_MOTION_DOT":5.643e-5,"MEAN_MOTION_DDOT":0},{"OBJECT_NAME":"HINCUBE","OBJECT_ID":"2013-066AF","EPOCH":"2026-03-09T20:37:05.272320","MEAN_MOTION":15.06793635,"ECCENTRICITY":0.00336438,"INCLINATION":97.7872,"RA_OF_ASC_NODE":36.0584,"ARG_OF_PERICENTER":185.5277,"MEAN_ANOMALY":174.5583,"EPHEMERIS_TYPE":0,"CLASSIFICATION_TYPE":"U","NORAD_CAT_ID":39445,"ELEMENT_SET_NO":999,"REV_AT_EPOCH":66456,"BSTAR":0.00067193541,"MEAN_MOTION_DOT":0.00010075,"MEAN_MOTION_DDOT":0}]
